UNIBRITE                
1 39092U 13009G   26094.45176530  .00000344  00000+0  13187-3 0  9991
2 39092  98.4015 275.8099 0010312  96.5049 263.7312 14.36383007686405
AIST-2 (RS43)           
1 39133U 13015D   26094.26165957  .00010566  00000+0  42006-3 0  9993
2 39133  64.8677 138.9099 0022371 248.4439 111.4307 15.25490058712621
GAOFEN-1                
1 39150U 13018A   26094.26438131  .00001206  00000+0  17983-3 0  9999
2 39150  97.9138 167.8204 0018096 140.6659 219.5869 14.76528654697336
NEE-01 PEGASO           
1 39151U 13018B   26093.82965833  .00005522  00000+0  53212-3 0  9995
2 39151  98.1108 235.5903 0013596  53.0789 307.1673 14.93292166699601
TURKSAT-3USAT           
1 39152U 13018C   26094.24794291  .00007272  00000+0  65299-3 0  9993
2 39152  97.7903 185.4184 0011511 352.8166   7.2888 14.95964026700037
CUBEBUG-1 (CAPITAN BETO)
1 39153U 13018D   26094.17807862  .00007854  00000+0  68949-3 0  9996
2 39153  98.1574 250.8835 0012286  40.0716 320.1408 14.96836177699997
PROBA-V                 
1 39159U 13021A   26093.89803824  .00000141  00000+0  79921-4 0  9993
2 39159  98.3541  76.1930 0004198   7.2967 352.8273 14.23580926670540
ESTCUBE 1               
1 39161U 13021C   26094.09200778  .00003544  00000+0  46176-3 0  9993
2 39161  97.7365 150.8649 0006799 253.4383 106.6083 14.81178882694057
ARIRANG-5 (KOMPSAT-5)   
1 39227U 13042A   26094.27531189  .00001858  00000+0  13704-3 0  9999
2 39227  97.6193 282.0056 0004387  45.7458 314.4128 15.04504338692742
GONETS-M 5              
1 39249U 13048A   26094.29937189 -.00000018  00000+0 -19930-3 0  9997
2 39249  82.4867  29.4369 0017360  17.5129 342.6545 12.42889264569701
GONETS-M 7              
1 39251U 13048C   26094.26368314 -.00000065  00000+0 -53753-3 0  9998
2 39251  82.4929  32.3423 0018194  18.6488 341.5254 12.42911888569650
FENGYUN 3C              
1 39260U 13052A   26094.26007583  .00000193  00000+0  11945-3 0  9998
2 39260  98.4929  71.5533 0013653 233.6697 126.3218 14.15737621648100
CASSIOPE                
1 39265U 13055A   26094.23119005  .00046369 -12761-6  55071-3 0  9994
2 39265  80.9171 156.1926 0306949 310.7339  46.7598 15.20713989656416
APRIZESAT 7             
1 39416U 13066A   26094.28884967  .00003291  00000+0  33098-3 0  9992
2 39416  97.7643  48.6119 0037582  96.0690 264.4813 14.91377084670213
ZACUBE-1 (TSHEPISOSAT)  
1 39417U 13066B   26093.87178787  .00009224  00000+0  71955-3 0  9999
2 39417  97.8146  55.8184 0044929 138.2329 222.2338 15.00579357669586
APRIZESAT 8             
1 39425U 13066K   26093.81371743  .00001941  00000+0  21614-3 0  9994
2 39425  97.8157  42.3592 0046265 168.8272 191.3983 14.87495296668610
