[{"OBJECT_NAME":"UNIBRITE","OBJECT_ID":"2013-009G","EPOCH":"2026-04-04T10:50:32.521920","MEAN_MOTION":14.36383007,"ECCENTRICITY":0.00103121,"INCLINATION":98.4015,"RA_OF_ASC_NODE":275.8099,"ARG_OF_PERICENTER":96.5049,"MEAN_ANOMALY":263.7312,"EPHEMERIS_TYPE":0,"CLASSIFICATION_TYPE":"U","NORAD_CAT_ID":39092,"ELEMENT_SET_NO":999,"REV_AT_EPOCH":68640,"BSTAR":0.0001318662,"MEAN_MOTION_DOT":3.44e-6,"MEAN_MOTION_DDOT":0},{"OBJECT_NAME":"AIST-2 (RS43)","OBJECT_ID":"2013-015D","EPOCH":"2026-04-04T06:16:47.386848","MEAN_MOTION":15.25490058,"ECCENTRICITY":0.0022371,"INCLINATION":64.8677,"RA_OF_ASC_NODE":138.9099,"ARG_OF_PERICENTER":248.4439,"MEAN_ANOMALY":111.4307,"EPHEMERIS_TYPE":0,"CLASSIFICATION_TYPE":"U","NORAD_CAT_ID":39133,"ELEMENT_SET_NO":999,"REV_AT_EPOCH":71262,"BSTAR":0.0004200552,"MEAN_MOTION_DOT":0.00010566,"MEAN_MOTION_DDOT":0},{"OBJECT_NAME":"GAOFEN-1","OBJECT_ID":"2013-018A","EPOCH":"2026-04-04T06:20:42.545184","MEAN_MOTION":14.76528654,"ECCENTRICITY":0.00180961,"INCLINATION":97.9138,"RA_OF_ASC_NODE":167.8204,"ARG_OF_PERICENTER":140.6659,"MEAN_ANOMALY":219.5869,"EPHEMERIS_TYPE":0,"CLASSIFICATION_TYPE":"U","NORAD_CAT_ID":39150,"ELEMENT_SET_NO":999,"REV_AT_EPOCH":69733,"BSTAR":0.000179828,"MEAN_MOTION_DOT":1.206e-5,"MEAN_MOTION_DDOT":0},{"OBJECT_NAME":"NEE-01 PEGASO","OBJECT_ID":"2013-018B","EPOCH":"2026-04-03T19:54:42.479712","MEAN_MOTION":14.93292166,"ECCENTRICITY":0.00135962,"INCLINATION":98.1108,"RA_OF_ASC_NODE":235.5903,"ARG_OF_PERICENTER":53.0789,"MEAN_ANOMALY":307.1673,"EPHEMERIS_TYPE":0,"CLASSIFICATION_TYPE":"U","NORAD_CAT_ID":39151,"ELEMENT_SET_NO":999,"REV_AT_EPOCH":69960,"BSTAR":0.00053212343,"MEAN_MOTION_DOT":5.522e-5,"MEAN_MOTION_DDOT":0},{"OBJECT_NAME":"TURKSAT-3USAT","OBJECT_ID":"2013-018C","EPOCH":"2026-04-04T05:57:02.267424","MEAN_MOTION":14.95964026,"ECCENTRICITY":0.00115113,"INCLINATION":97.7903,"RA_OF_ASC_NODE":185.4184,"ARG_OF_PERICENTER":352.8166,"MEAN_ANOMALY":7.2888,"EPHEMERIS_TYPE":0,"CLASSIFICATION_TYPE":"U","NORAD_CAT_ID":39152,"ELEMENT_SET_NO":999,"REV_AT_EPOCH":70003,"BSTAR":0.00065299238,"MEAN_MOTION_DOT":7.272e-5,"MEAN_MOTION_DDOT":0},{"OBJECT_NAME":"CUBEBUG-1 (CAPITAN BETO)","OBJECT_ID":"2013-018D","EPOCH":"2026-04-04T04:16:25.992768","MEAN_MOTION":14.96836177,"ECCENTRICITY":0.00122867,"INCLINATION":98.1574,"RA_OF_ASC_NODE":250.8835,"ARG_OF_PERICENTER":40.0716,"MEAN_ANOMALY":320.1408,"EPHEMERIS_TYPE":0,"CLASSIFICATION_TYPE":"U","NORAD_CAT_ID":39153,"ELEMENT_SET_NO":999,"REV_AT_EPOCH":69999,"BSTAR":0.00068949105,"MEAN_MOTION_DOT":7.854e-5,"MEAN_MOTION_DDOT":0},{"OBJECT_NAME":"PROBA-V","OBJECT_ID":"2013-021A","EPOCH":"2026-04-03T21:33:10.503936","MEAN_MOTION":14.23580926,"ECCENTRICITY":0.00041988,"INCLINATION":98.3541,"RA_OF_ASC_NODE":76.193,"ARG_OF_PERICENTER":7.2967,"MEAN_ANOMALY":352.8273,"EPHEMERIS_TYPE":0,"CLASSIFICATION_TYPE":"U","NORAD_CAT_ID":39159,"ELEMENT_SET_NO":999,"REV_AT_EPOCH":67054,"BSTAR":7.9920567e-5,"MEAN_MOTION_DOT":1.41e-6,"MEAN_MOTION_DDOT":0},{"OBJECT_NAME":"ESTCUBE 1","OBJECT_ID":"2013-021C","EPOCH":"2026-04-04T02:12:29.472192","MEAN_MOTION":14.81178882,"ECCENTRICITY":0.00067992,"INCLINATION":97.7365,"RA_OF_ASC_NODE":150.8649,"ARG_OF_PERICENTER":253.4383,"MEAN_ANOMALY":106.6083,"EPHEMERIS_TYPE":0,"CLASSIFICATION_TYPE":"U","NORAD_CAT_ID":39161,"ELEMENT_SET_NO":999,"REV_AT_EPOCH":69405,"BSTAR":0.00046176417,"MEAN_MOTION_DOT":3.544e-5,"MEAN_MOTION_DDOT":0},{"OBJECT_NAME":"ARIRANG-5 (KOMPSAT-5)","OBJECT_ID":"2013-042A","EPOCH":"2026-04-04T06:36:26.947296","MEAN_MOTION":15.04504338,"ECCENTRICITY":0.00043875,"INCLINATION":97.6193,"RA_OF_ASC_NODE":282.0056,"ARG_OF_PERICENTER":45.7458,"MEAN_ANOMALY":314.4128,"EPHEMERIS_TYPE":0,"CLASSIFICATION_TYPE":"U","NORAD_CAT_ID":39227,"ELEMENT_SET_NO":999,"REV_AT_EPOCH":69274,"BSTAR":0.00013704373,"MEAN_MOTION_DOT":1.858e-5,"MEAN_MOTION_DDOT":0},{"OBJECT_NAME":"GONETS-M 5","OBJECT_ID":"2013-048A","EPOCH":"2026-04-04T07:11:05.731296","MEAN_MOTION":12.42889264,"ECCENTRICITY":0.00173601,"INCLINATION":82.4867,"RA_OF_ASC_NODE":29.4369,"ARG_OF_PERICENTER":17.5129,"MEAN_ANOMALY":342.6545,"EPHEMERIS_TYPE":0,"CLASSIFICATION_TYPE":"U","NORAD_CAT_ID":39249,"ELEMENT_SET_NO":999,"REV_AT_EPOCH":56970,"BSTAR":-0.00019930312,"MEAN_MOTION_DOT":-1.8e-7,"MEAN_MOTION_DDOT":0},{"OBJECT_NAME":"GONETS-M 7","OBJECT_ID":"2013-048C","EPOCH":"2026-04-04T06:19:42.223296","MEAN_MOTION":12.42911888,"ECCENTRICITY":0.0018194,"INCLINATION":82.4929,"RA_OF_ASC_NODE":32.3423,"ARG_OF_PERICENTER":18.6488,"MEAN_ANOMALY":341.5254,"EPHEMERIS_TYPE":0,"CLASSIFICATION_TYPE":"U","NORAD_CAT_ID":39251,"ELEMENT_SET_NO":999,"REV_AT_EPOCH":56965,"BSTAR":-0.00053752989,"MEAN_MOTION_DOT":-6.5e-7,"MEAN_MOTION_DDOT":0},{"OBJECT_NAME":"FENGYUN 3C","OBJECT_ID":"2013-052A","EPOCH":"2026-04-04T06:14:30.551712","MEAN_MOTION":14.15737621,"ECCENTRICITY":0.00136532,"INCLINATION":98.4929,"RA_OF_ASC_NODE":71.5533,"ARG_OF_PERICENTER":233.6697,"MEAN_ANOMALY":126.3218,"EPHEMERIS_TYPE":0,"CLASSIFICATION_TYPE":"U","NORAD_CAT_ID":39260,"ELEMENT_SET_NO":999,"REV_AT_EPOCH":64810,"BSTAR":0.00011944614,"MEAN_MOTION_DOT":1.93e-6,"MEAN_MOTION_DDOT":0},{"OBJECT_NAME":"CASSIOPE","OBJECT_ID":"2013-055A","EPOCH":"2026-04-04T05:32:54.820320","MEAN_MOTION":15.20713989,"ECCENTRICITY":0.03069495,"INCLINATION":80.9171,"RA_OF_ASC_NODE":156.1926,"ARG_OF_PERICENTER":310.7339,"MEAN_ANOMALY":46.7598,"EPHEMERIS_TYPE":0,"CLASSIFICATION_TYPE":"U","NORAD_CAT_ID":39265,"ELEMENT_SET_NO":999,"REV_AT_EPOCH":65641,"BSTAR":0.00055071321,"MEAN_MOTION_DOT":0.00046369,"MEAN_MOTION_DDOT":-1.27607e-7},{"OBJECT_NAME":"APRIZESAT 7","OBJECT_ID":"2013-066A","EPOCH":"2026-04-04T06:55:56.611488","MEAN_MOTION":14.91377084,"ECCENTRICITY":0.00375827,"INCLINATION":97.7643,"RA_OF_ASC_NODE":48.6119,"ARG_OF_PERICENTER":96.069,"MEAN_ANOMALY":264.4813,"EPHEMERIS_TYPE":0,"CLASSIFICATION_TYPE":"U","NORAD_CAT_ID":39416,"ELEMENT_SET_NO":999,"REV_AT_EPOCH":67021,"BSTAR":0.0003309773,"MEAN_MOTION_DOT":3.291e-5,"MEAN_MOTION_DDOT":0},{"OBJECT_NAME":"ZACUBE-1 (TSHEPISOSAT)","OBJECT_ID":"2013-066B","EPOCH":"2026-04-03T20:55:22.471968","MEAN_MOTION":15.00579357,"ECCENTRICITY":0.0044929,"INCLINATION":97.8146,"RA_OF_ASC_NODE":55.8184,"ARG_OF_PERICENTER":138.2329,"MEAN_ANOMALY":222.2338,"EPHEMERIS_TYPE":0,"CLASSIFICATION_TYPE":"U","NORAD_CAT_ID":39417,"ELEMENT_SET_NO":999,"REV_AT_EPOCH":66958,"BSTAR":0.00071954723,"MEAN_MOTION_DOT":9.224e-5,"MEAN_MOTION_DDOT":0},{"OBJECT_NAME":"APRIZESAT 8","OBJECT_ID":"2013-066K","EPOCH":"2026-04-03T19:31:45.185952","MEAN_MOTION":14.87495296,"ECCENTRICITY":0.00462657,"INCLINATION":97.8157,"RA_OF_ASC_NODE":42.3592,"ARG_OF_PERICENTER":168.8272,"MEAN_ANOMALY":191.3983,"EPHEMERIS_TYPE":0,"CLASSIFICATION_TYPE":"U","NORAD_CAT_ID":39425,"ELEMENT_SET_NO":999,"REV_AT_EPOCH":66861,"BSTAR":0.00021613973,"MEAN_MOTION_DOT":1.941e-5,"MEAN_MOTION_DDOT":0}]
